NORAD_CAT_ID,OBJECT_NAME,OBJECT_TYPE,EPOCH,MEAN_MOTION,ECCENTRICITY,INCLINATION,RA_OF_ASC_NODE,ARG_OF_PERICENTER,MEAN_ANOMALY,BSTAR,MEAN_MOTION_DOT,MEAN_MOTION_DDOT,TLE_LINE0,TLE_LINE1,TLE_LINE2,SEMIMAJOR_AXIS,PERIOD,APOGEE,PERIGEE,DECAYED
53574.0,STARLINK-4559,PAYLOAD,2023-04-03 14:48:15,15.08815564,0.0001534,53.2158,182.0663,105.3831,254.7331,-0.00028607,-4.835e-05,0.0,0 STARLINK-4559,1 53574U 22101AZ  23093.61685165 -.00004835  00000-0 -28607-3 0  9993,2 53574  53.2158 182.0663 0001534 105.3831 254.7331 15.08815564 34757,6917.955,95.439,540.881,538.759,0.0
53574.0,STARLINK-4559,PAYLOAD,2023-04-04 05:06:44,15.08831322,5.49e-05,53.214,179.3905,52.4753,307.6288,8.5904e-05,1.08e-05,0.0,0 STARLINK-4559,1 53574U 22101AZ  23094.21300940  .00001080  00000-0  85904-4 0  9996,2 53574  53.2140 179.3905 0000549  52.4753 307.6288 15.08831322 34845,6917.907,95.438,540.152,539.392,0.0
53574.0,STARLINK-4559,PAYLOAD,2023-04-04 11:28:16,15.08839844,0.0001578,53.2153,178.2051,54.2472,305.8667,0.00043445,6.633e-05,0.0,0 STARLINK-4559,1 53574U 22101AZ  23094.47797181  .00006633  00000-0  43445-3 0  9993,2 53574  53.2153 178.2051 0001578  54.2472 305.8667 15.08839844 34882,6917.881,95.438,540.838,538.654,0.0
53574.0,STARLINK-4559,PAYLOAD,2023-04-05 04:57:30,15.08854375,0.0001503,53.2149,174.9326,65.4118,294.7031,0.00066509,0.00010317,0.0,0 STARLINK-4559,1 53574U 22101AZ  23095.20660777  .00010317  00000-0  66509-3 0  9995,2 53574  53.2149 174.9326 0001503  65.4118 294.7031 15.08854375 34993,6917.836,95.437,540.741,538.662,0.0
53574.0,STARLINK-4559,PAYLOAD,2023-04-05 12:54:26,15.08859114,0.0001468,53.2159,173.4446,88.1468,271.9692,0.00042036,6.412e-05,0.0,0 STARLINK-4559,1 53574U 22101AZ  23095.53780212  .00006412  00000-0  42036-3 0  9998,2 53574  53.2159 173.4446 0001468  88.1468 271.9692 15.08859114 35044,6917.822,95.436,540.703,538.671,0.0
53574.0,STARLINK-4559,PAYLOAD,2023-04-06 04:48:17,15.08848681,0.0001793,53.2152,170.471,69.9293,290.1893,6.5331e-05,7.52e-06,0.0,0 STARLINK-4559,1 53574U 22101AZ  23096.20020202  .00000752  00000-0  65331-4 0  9994,2 53574  53.2152 170.4710 0001793  69.9293 290.1893 15.08848681 35146,6917.854,95.437,540.959,538.478,0.0
53574.0,STARLINK-4559,PAYLOAD,2023-04-06 14:20:35,15.0885114,0.000153,53.2155,168.6835,88.4409,271.6758,3.8003e-05,3.17e-06,0.0,0 STARLINK-4559,1 53574U 22101AZ  23096.59763871  .00000317  00000-0  38003-4 0  9995,2 53574  53.2155 168.6835 0001530  88.4409 271.6758 15.08851140 35205,6917.846,95.437,540.77,538.653,0.0
53574.0,STARLINK-4559,PAYLOAD,2023-04-07 11:00:36,15.08848797,0.000135,53.214,164.8172,88.1224,271.9923,5.2074e-05,5.41e-06,0.0,0 STARLINK-4559,1 53574U 22101AZ  23097.45875651  .00000541  00000-0  52074-4 0  9994,2 53574  53.2140 164.8172 0001350  88.1224 271.9923 15.08848797 35338,6917.854,95.437,540.652,538.785,0.0
53574.0,STARLINK-4559,PAYLOAD,2023-04-07 14:11:22,15.08851421,0.0001349,53.2139,164.2218,92.5957,267.519,8.9328e-05,1.134e-05,0.0,0 STARLINK-4559,1 53574U 22101AZ  23097.59123437  .00001134  00000-0  89328-4 0  9998,2 53574  53.2139 164.2218 0001349  92.5957 267.5190 15.08851421 35358,6917.845,95.437,540.644,538.777,0.0
53574.0,STARLINK-4559,PAYLOAD,2023-04-08 04:29:51,15.08839205,0.0001433,53.2134,161.545,93.11,267.0056,9.8873e-05,1.286e-05,0.0,0 STARLINK-4559,1 53574U 22101AZ  23098.18739993  .00001286  00000-0  98873-4 0  9997,2 53574  53.2134 161.5450 0001433  93.1100 267.0056 15.08839205 35444,6917.883,95.438,540.739,538.756,0.0
53574.0,STARLINK-4559,PAYLOAD,2023-04-08 09:16:00,15.08841094,0.0001402,53.2141,160.6528,101.4382,258.6767,0.00011781,1.588e-05,0.0,0 STARLINK-4559,1 53574U 22101AZ  23098.38611791  .00001588  00000-0  11781-3 0  9991,2 53574  53.2141 160.6528 0001402 101.4382 258.6767 15.08841094 35476,6917.877,95.437,540.712,538.772,0.0
53574.0,STARLINK-4559,PAYLOAD,2023-04-09 10:42:10,15.08843796,0.0001389,53.2154,155.8954,105.0883,255.0263,2.2706e-05,7.3e-07,0.0,0 STARLINK-4559,1 53574U 22101AZ  23099.44595685  .00000073  00000-0  22706-4 0  9990,2 53574  53.2154 155.8954 0001389 105.0883 255.0263 15.08843796 35630,6917.869,95.437,540.695,538.773,0.0
53574.0,STARLINK-4559,PAYLOAD,2023-04-09 20:14:29,15.08841344,0.0001307,53.2152,154.1125,104.4022,255.7115,-5.6577e-06,-3.78e-06,0.0,0 STARLINK-4559,1 53574U 22101AZ  23099.84339880 -.00000378  00000-0 -56577-5 0  9991,2 53574  53.2152 154.1125 0001307 104.4022 255.7115 15.08841344 35694,6917.876,95.437,540.645,538.837,0.0
53574.0,STARLINK-4559,PAYLOAD,2023-04-10 02:36:02,15.08835953,0.0001379,53.2153,152.9232,101.2432,258.8715,6.9194e-05,8.13e-06,0.0,0 STARLINK-4559,1 53574U 22101AZ  23100.10836163  .00000813  00000-0  69194-4 0  9999,2 53574  53.2153 152.9232 0001379 101.2432 258.8715 15.08835953 35733,6917.893,95.438,540.712,538.804,0.0
53574.0,STARLINK-4559,PAYLOAD,2023-04-10 07:22:11,15.08837741,0.0001366,53.2155,152.0311,102.6016,257.5129,4.9715e-05,5.03e-06,0.0,0 STARLINK-4559,1 53574U 22101AZ  23100.30708136  .00000503  00000-0  49715-4 0  9992,2 53574  53.2155 152.0311 0001366 102.6016 257.5129 15.08837741 35768,6917.887,95.438,540.697,538.807,0.0
53574.0,STARLINK-4559,PAYLOAD,2023-04-10 20:05:16,15.0884134,0.0001354,53.216,149.6527,99.152,260.9625,9.7182e-05,1.259e-05,0.0,0 STARLINK-4559,1 53574U 22101AZ  23100.83699800  .00001259  00000-0  97182-4 0  9997,2 53574  53.2160 149.6527 0001354  99.1520 260.9625 15.08841340 35840,6917.876,95.437,540.678,538.805,0.0
53574.0,STARLINK-4559,PAYLOAD,2023-04-11 10:23:45,15.08839686,0.0001404,53.2166,146.9765,100.5348,259.5803,7.383e-05,8.87e-06,0.0,0 STARLINK-4559,1 53574U 22101AZ  23101.43316028  .00000887  00000-0  73830-4 0  9992,2 53574  53.2166 146.9765 0001404 100.5348 259.5803 15.08839686 35933,6917.881,95.438,540.718,538.775,0.0
53574.0,STARLINK-4559,PAYLOAD,2023-04-11 19:56:04,15.08837029,0.0001394,53.217,145.1928,93.3893,266.7259,7.0589e-05,8.36e-06,0.0,0 STARLINK-4559,1 53574U 22101AZ  23101.83060299  .00000836  00000-0  70589-4 0  9994,2 53574  53.2170 145.1928 0001394  93.3893 266.7259 15.08837029 35992,6917.889,95.438,540.719,538.79,0.0
53574.0,STARLINK-4559,PAYLOAD,2023-04-12 10:14:32,15.08838046,0.0001407,53.2171,142.5161,92.0966,268.0187,3.732e-05,3.06e-06,0.0,0 STARLINK-4559,1 53574U 22101AZ  23102.42676421  .00000306  00000-0  37320-4 0  9998,2 53574  53.2171 142.5161 0001407  92.0966 268.0187 15.08838046 36081,6917.886,95.438,540.725,538.778,0.0
53574.0,STARLINK-4559,PAYLOAD,2023-04-13 08:29:56,15.08840111,0.0001372,53.2164,138.3525,91.3441,268.7708,5.0889e-05,5.22e-06,0.0,0 STARLINK-4559,1 53574U 22101AZ  23103.35412329  .00000522  00000-0  50889-4 0  9991,2 53574  53.2164 138.3525 0001372  91.3441 268.7708 15.08840111 36229,6917.88,95.438,540.694,538.796,0.0
53574.0,STARLINK-4559,PAYLOAD,2023-04-13 19:37:38,15.08839216,0.0001384,53.2162,136.2707,90.5033,269.6118,6.2089e-05,7e-06,0.0,0 STARLINK-4559,1 53574U 22101AZ  23103.81780373  .00000700  00000-0  62089-4 0  9992,2 53574  53.2162 136.2707 0001384  90.5033 269.6118 15.08839216 36293,6917.883,95.438,540.705,538.79,0.0
53574.0,STARLINK-4559,PAYLOAD,2023-04-14 11:31:29,15.08844738,0.0001315,53.215,133.2956,95.3324,264.7819,0.00010669,1.411e-05,0.0,0 STARLINK-4559,1 53574U 22101AZ  23104.48019908  .00001411  00000-0  10669-3 0  9991,2 53574  53.2150 133.2956 0001315  95.3324 264.7819 15.08844738 36393,6917.866,95.437,540.641,538.821,0.0
53574.0,STARLINK-4559,PAYLOAD,2023-04-14 21:03:48,15.08840088,0.0001281,53.2149,131.5117,97.093,263.0208,6.5968e-05,7.62e-06,0.0,0 STARLINK-4559,1 53574U 22101AZ  23104.87764297  .00000762  00000-0  65968-4 0  9993,2 53574  53.2149 131.5117 0001281  97.0930 263.0208 15.08840088 36450,6917.88,95.438,540.631,538.859,0.0
53574.0,STARLINK-4559,PAYLOAD,2023-04-15 08:11:30,15.08842046,0.0001293,53.2147,129.4305,92.5289,267.5851,6.5075e-05,7.48e-06,0.0,0 STARLINK-4559,1 53574U 22101AZ  23105.34132224  .00000748  00000-0  65075-4 0  9998,2 53574  53.2147 129.4305 0001293  92.5289 267.5851 15.08842046 36520,6917.874,95.437,540.634,538.845,0.0
53574.0,STARLINK-4559,PAYLOAD,2023-04-16 01:40:45,15.08836157,0.0001308,53.2144,126.1609,80.2136,279.9004,3.4062e-05,2.54e-06,0.0,0 STARLINK-4559,1 53574U 22101AZ  23106.06996764  .00000254  00000-0  34062-4 0  9999,2 53574  53.2144 126.1609 0001308  80.2136 279.9004 15.08836157 36635,6917.892,95.438,540.662,538.852,0.0
53574.0,STARLINK-4559,PAYLOAD,2023-04-16 08:02:17,15.08836355,0.0001304,53.2145,124.9699,86.8024,273.3117,-5.8945e-06,-3.82e-06,0.0,0 STARLINK-4559,1 53574U 22101AZ  23106.33492901 -.00000382  00000-0 -58945-5 0  9994,2 53574  53.2145 124.9699 0001304  86.8024 273.3117 15.08836355 36672,6917.892,95.438,540.659,538.854,0.0
53574.0,STARLINK-4559,PAYLOAD,2023-04-16 17:34:36,15.08838217,0.0001223,53.2145,123.1859,92.7501,267.3631,-4.4995e-05,-1.004e-05,0.0,0 STARLINK-4559,1 53574U 22101AZ  23106.73236933 -.00001004  00000-0 -44995-4 0  9990,2 53574  53.2145 123.1859 0001223  92.7501 267.3631 15.08838217 36737,6917.886,95.438,540.597,538.905,0.0
53574.0,STARLINK-4559,PAYLOAD,2023-04-17 04:42:18,15.08830242,0.0001266,53.2153,121.1034,98.5352,261.5784,9.1715e-05,1.172e-05,0.0,0 STARLINK-4559,1 53574U 22101AZ  23107.19605265  .00001172  00000-0  91715-4 0  9995,2 53574  53.2153 121.1034 0001266  98.5352 261.5784 15.08830242 36807,6917.91,95.438,540.651,538.899,0.0
53574.0,STARLINK-4559,PAYLOAD,2023-04-17 11:03:51,15.08837368,0.000136,53.2152,119.9146,94.0755,266.0393,4.7436e-05,4.67e-06,0.0,0 STARLINK-4559,1 53574U 22101AZ  23107.46101001  .00000467  00000-0  47436-4 0  9991,2 53574  53.2152 119.9146 0001360  94.0755 266.0393 15.08837368 36844,6917.888,95.438,540.694,538.813,0.0
53574.0,STARLINK-4559,PAYLOAD,2023-04-17 17:25:23,15.08835269,0.0001361,53.2155,118.7246,92.3745,267.7403,4.9237e-05,4.96e-06,0.0,0 STARLINK-4559,1 53574U 22101AZ  23107.72597222  .00000496  00000-0  49237-4 0  9997,2 53574  53.2155 118.7246 0001361  92.3745 267.7403 15.08835269 36888,6917.895,95.438,540.701,538.818,0.0
